STARLINK-32382          
1 61258U 24175R   26068.56579388 -.00001393  00000+0 -34919-4 0  9991
2 61258  53.1598 194.6837 0001075  81.8402 278.2720 15.30201487 81434
TEVEL2-6                
1 63215U 25052F   26068.64958975  .00021046  00000+0  70909-3 0  9996
2 63215  97.4016 325.0381 0004769  95.6604 264.5181 15.30760889 54861
